STARLINK-34513          
1 64609U 25137R   25261.75666601  .00041752  00000+0  10480-2 0  9999
2 64609  53.1598  61.4822 0000627  52.2042 307.9020 15.39622733 14402
STARLINK-34569          
1 64610U 25137S   25261.68710904  .00036618  00000+0  92012-3 0  9996
2 64610  53.1602  61.7589 0001143 109.9169 250.1959 15.39650255 14294
STARLINK-34494          
1 64611U 25137T   25261.74738048  .00109436  00000+0  27065-2 0  9997
2 64611  53.1593  61.4270 0000996  65.5970 294.5139 15.39623610 14309
STARLINK-34521          
1 64612U 25137U   25261.73809694  .00031880  00000+0  80310-3 0  9993
2 64612  53.1591  61.3678 0000634  82.8267 277.2810 15.39640743 14309
STARLINK-34500          
1 64613U 25137V   25261.72880667  .00054157  00000+0  13540-2 0  9994
2 64613  53.1596  61.3127 0001015  56.1279 303.9822 15.39627509 14401
STARLINK-34440          
1 64614U 25137W   25261.72416043  .00034831  00000+0  87665-3 0  9995
2 64614  53.1593  61.2815 0000702  70.9306 289.1774 15.39624120 14305
STARLINK-34469          
1 64615U 25137X   25261.74273582  .00038964  00000+0  97894-3 0  9993
2 64615  53.1590  61.3962 0001002  95.1115 265.0005 15.39625255 14308
STARLINK-34413          
1 64616U 25137Y   25261.73344925  .00034042  00000+0  85700-3 0  9999
2 64616  53.1595  61.3361 0000916  84.1157 275.9953 15.39628141 14404
STARLINK-34417          
1 64617U 25137Z   25262.25002315 -.00602050  00000+0 -14785-1 0  9997
2 64617  53.1603  46.8594 0001095 106.3781 112.5248 15.42476650  6000
STARLINK-34415          
1 64618U 25137AA  25261.91668981  .00077317  00000+0  19264-2 0  9995
2 64618  53.1598  60.3230 0001114  77.8335 295.7624 15.39572488  5914
STARLINK-34416          
1 64619U 25137AB  25262.16927819  .00065445  00000+0  16309-2 0  9998
2 64619  53.1609  59.0799 0001254  82.0562 278.0586 15.39641660 14378
STARLINK-34414          
1 64620U 25137AC  25262.09042897  .00034820  00000+0  87579-3 0  9997
2 64620  53.1604  59.2975 0000993 112.3854 247.7256 15.39645002 14363
STARLINK-34464          
1 64664U 25139A   25262.25013625  .00031602  00000+0  10745-2 0  9997
2 64664  53.1589 203.5272 0001150  90.2373 269.8760 15.30200438 14033
STARLINK-34555          
1 64665U 25139B   25262.24697013  .00037803  00000+0  12818-2 0  9998
2 64665  53.1595 203.5094 0001025  71.7744 288.3368 15.30206437 13933
STARLINK-34390          
1 64666U 25139C   25262.21425827  .00027088  00000+0  92259-3 0  9990
2 64666  53.1589 203.3023 0001159  32.8452 327.2620 15.30227189 14098
STARLINK-34382          
1 64667U 25139D   25262.06685790  .00024722  00000+0  84379-3 0  9997
2 64667  53.1583 204.5174 0001675 102.9571 257.1617 15.30209051 14003
