[{"OBJECT_NAME":"STARLINK-34513","OBJECT_ID":"2025-137R","EPOCH":"2025-09-18T18:09:35.943264","MEAN_MOTION":15.39622733,"ECCENTRICITY":6.276e-5,"INCLINATION":53.1598,"RA_OF_ASC_NODE":61.4822,"ARG_OF_PERICENTER":52.2042,"MEAN_ANOMALY":307.902,"EPHEMERIS_TYPE":0,"CLASSIFICATION_TYPE":"U","NORAD_CAT_ID":64609,"ELEMENT_SET_NO":999,"REV_AT_EPOCH":1440,"BSTAR":0.0010479701,"MEAN_MOTION_DOT":0.00041752,"MEAN_MOTION_DDOT":0},{"OBJECT_NAME":"STARLINK-34569","OBJECT_ID":"2025-137S","EPOCH":"2025-09-18T16:29:26.221056","MEAN_MOTION":15.39650255,"ECCENTRICITY":0.00011439,"INCLINATION":53.1602,"RA_OF_ASC_NODE":61.7589,"ARG_OF_PERICENTER":109.9169,"MEAN_ANOMALY":250.1959,"EPHEMERIS_TYPE":0,"CLASSIFICATION_TYPE":"U","NORAD_CAT_ID":64610,"ELEMENT_SET_NO":999,"REV_AT_EPOCH":1429,"BSTAR":0.00092011545,"MEAN_MOTION_DOT":0.00036618,"MEAN_MOTION_DDOT":0},{"OBJECT_NAME":"STARLINK-34494","OBJECT_ID":"2025-137T","EPOCH":"2025-09-18T17:56:13.673472","MEAN_MOTION":15.3962361,"ECCENTRICITY":9.966e-5,"INCLINATION":53.1593,"RA_OF_ASC_NODE":61.427,"ARG_OF_PERICENTER":65.597,"MEAN_ANOMALY":294.5139,"EPHEMERIS_TYPE":0,"CLASSIFICATION_TYPE":"U","NORAD_CAT_ID":64611,"ELEMENT_SET_NO":999,"REV_AT_EPOCH":1430,"BSTAR":0.0027064742,"MEAN_MOTION_DOT":0.00109436,"MEAN_MOTION_DDOT":0},{"OBJECT_NAME":"STARLINK-34521","OBJECT_ID":"2025-137U","EPOCH":"2025-09-18T17:42:51.575616","MEAN_MOTION":15.39640743,"ECCENTRICITY":6.347e-5,"INCLINATION":53.1591,"RA_OF_ASC_NODE":61.3678,"ARG_OF_PERICENTER":82.8267,"MEAN_ANOMALY":277.281,"EPHEMERIS_TYPE":0,"CLASSIFICATION_TYPE":"U","NORAD_CAT_ID":64612,"ELEMENT_SET_NO":999,"REV_AT_EPOCH":1430,"BSTAR":0.00080310046,"MEAN_MOTION_DOT":0.0003188,"MEAN_MOTION_DDOT":0},{"OBJECT_NAME":"STARLINK-34500","OBJECT_ID":"2025-137V","EPOCH":"2025-09-18T17:29:28.896288","MEAN_MOTION":15.39627509,"ECCENTRICITY":0.00010153,"INCLINATION":53.1596,"RA_OF_ASC_NODE":61.3127,"ARG_OF_PERICENTER":56.1279,"MEAN_ANOMALY":303.9822,"EPHEMERIS_TYPE":0,"CLASSIFICATION_TYPE":"U","NORAD_CAT_ID":64613,"ELEMENT_SET_NO":999,"REV_AT_EPOCH":1440,"BSTAR":0.0013539758,"MEAN_MOTION_DOT":0.00054157,"MEAN_MOTION_DDOT":0},{"OBJECT_NAME":"STARLINK-34440","OBJECT_ID":"2025-137W","EPOCH":"2025-09-18T17:22:47.461152","MEAN_MOTION":15.3962412,"ECCENTRICITY":7.025e-5,"INCLINATION":53.1593,"RA_OF_ASC_NODE":61.2815,"ARG_OF_PERICENTER":70.9306,"MEAN_ANOMALY":289.1774,"EPHEMERIS_TYPE":0,"CLASSIFICATION_TYPE":"U","NORAD_CAT_ID":64614,"ELEMENT_SET_NO":999,"REV_AT_EPOCH":1430,"BSTAR":0.00087665212,"MEAN_MOTION_DOT":0.00034831,"MEAN_MOTION_DDOT":0},{"OBJECT_NAME":"STARLINK-34469","OBJECT_ID":"2025-137X","EPOCH":"2025-09-18T17:49:32.374848","MEAN_MOTION":15.39625255,"ECCENTRICITY":0.00010027,"INCLINATION":53.159,"RA_OF_ASC_NODE":61.3962,"ARG_OF_PERICENTER":95.1115,"MEAN_ANOMALY":265.0005,"EPHEMERIS_TYPE":0,"CLASSIFICATION_TYPE":"U","NORAD_CAT_ID":64615,"ELEMENT_SET_NO":999,"REV_AT_EPOCH":1430,"BSTAR":0.00097893592,"MEAN_MOTION_DOT":0.00038964,"MEAN_MOTION_DDOT":0},{"OBJECT_NAME":"STARLINK-34413","OBJECT_ID":"2025-137Y","EPOCH":"2025-09-18T17:36:10.015200","MEAN_MOTION":15.39628141,"ECCENTRICITY":9.169e-5,"INCLINATION":53.1595,"RA_OF_ASC_NODE":61.3361,"ARG_OF_PERICENTER":84.1157,"MEAN_ANOMALY":275.9953,"EPHEMERIS_TYPE":0,"CLASSIFICATION_TYPE":"U","NORAD_CAT_ID":64616,"ELEMENT_SET_NO":999,"REV_AT_EPOCH":1440,"BSTAR":0.00085700372,"MEAN_MOTION_DOT":0.00034042,"MEAN_MOTION_DDOT":0},{"OBJECT_NAME":"STARLINK-34417","OBJECT_ID":"2025-137Z","EPOCH":"2025-09-19T06:00:02.000160","MEAN_MOTION":15.4247665,"ECCENTRICITY":0.00010958,"INCLINATION":53.1603,"RA_OF_ASC_NODE":46.8594,"ARG_OF_PERICENTER":106.3781,"MEAN_ANOMALY":112.5248,"EPHEMERIS_TYPE":0,"CLASSIFICATION_TYPE":"U","NORAD_CAT_ID":64617,"ELEMENT_SET_NO":999,"REV_AT_EPOCH":600,"BSTAR":-0.014785453,"MEAN_MOTION_DOT":-0.0060205,"MEAN_MOTION_DDOT":0},{"OBJECT_NAME":"STARLINK-34415","OBJECT_ID":"2025-137AA","EPOCH":"2025-09-18T22:00:01.999584","MEAN_MOTION":15.39572488,"ECCENTRICITY":0.0001114,"INCLINATION":53.1598,"RA_OF_ASC_NODE":60.323,"ARG_OF_PERICENTER":77.8335,"MEAN_ANOMALY":295.7624,"EPHEMERIS_TYPE":0,"CLASSIFICATION_TYPE":"U","NORAD_CAT_ID":64618,"ELEMENT_SET_NO":999,"REV_AT_EPOCH":591,"BSTAR":0.0019263731,"MEAN_MOTION_DOT":0.00077317,"MEAN_MOTION_DDOT":0},{"OBJECT_NAME":"STARLINK-34416","OBJECT_ID":"2025-137AB","EPOCH":"2025-09-19T04:03:45.635616","MEAN_MOTION":15.3964166,"ECCENTRICITY":0.00012548,"INCLINATION":53.1609,"RA_OF_ASC_NODE":59.0799,"ARG_OF_PERICENTER":82.0562,"MEAN_ANOMALY":278.0586,"EPHEMERIS_TYPE":0,"CLASSIFICATION_TYPE":"U","NORAD_CAT_ID":64619,"ELEMENT_SET_NO":999,"REV_AT_EPOCH":1437,"BSTAR":0.001630928,"MEAN_MOTION_DOT":0.00065445,"MEAN_MOTION_DDOT":0},{"OBJECT_NAME":"STARLINK-34414","OBJECT_ID":"2025-137AC","EPOCH":"2025-09-19T02:10:13.063008","MEAN_MOTION":15.39645002,"ECCENTRICITY":9.932e-5,"INCLINATION":53.1604,"RA_OF_ASC_NODE":59.2975,"ARG_OF_PERICENTER":112.3854,"MEAN_ANOMALY":247.7256,"EPHEMERIS_TYPE":0,"CLASSIFICATION_TYPE":"U","NORAD_CAT_ID":64620,"ELEMENT_SET_NO":999,"REV_AT_EPOCH":1436,"BSTAR":0.0008757866,"MEAN_MOTION_DOT":0.0003482,"MEAN_MOTION_DDOT":0},{"OBJECT_NAME":"STARLINK-34464","OBJECT_ID":"2025-139A","EPOCH":"2025-09-19T06:00:11.772000","MEAN_MOTION":15.30200438,"ECCENTRICITY":0.00011507,"INCLINATION":53.1589,"RA_OF_ASC_NODE":203.5272,"ARG_OF_PERICENTER":90.2373,"MEAN_ANOMALY":269.876,"EPHEMERIS_TYPE":0,"CLASSIFICATION_TYPE":"U","NORAD_CAT_ID":64664,"ELEMENT_SET_NO":999,"REV_AT_EPOCH":1403,"BSTAR":0.0010745491,"MEAN_MOTION_DOT":0.00031602,"MEAN_MOTION_DDOT":0},{"OBJECT_NAME":"STARLINK-34555","OBJECT_ID":"2025-139B","EPOCH":"2025-09-19T05:55:38.219232","MEAN_MOTION":15.30206437,"ECCENTRICITY":0.0001025,"INCLINATION":53.1595,"RA_OF_ASC_NODE":203.5094,"ARG_OF_PERICENTER":71.7744,"MEAN_ANOMALY":288.3368,"EPHEMERIS_TYPE":0,"CLASSIFICATION_TYPE":"U","NORAD_CAT_ID":64665,"ELEMENT_SET_NO":999,"REV_AT_EPOCH":1393,"BSTAR":0.0012817524,"MEAN_MOTION_DOT":0.00037803,"MEAN_MOTION_DDOT":0},{"OBJECT_NAME":"STARLINK-34390","OBJECT_ID":"2025-139C","EPOCH":"2025-09-19T05:08:31.914528","MEAN_MOTION":15.30227189,"ECCENTRICITY":0.0001159,"INCLINATION":53.1589,"RA_OF_ASC_NODE":203.3023,"ARG_OF_PERICENTER":32.8452,"MEAN_ANOMALY":327.262,"EPHEMERIS_TYPE":0,"CLASSIFICATION_TYPE":"U","NORAD_CAT_ID":64666,"ELEMENT_SET_NO":999,"REV_AT_EPOCH":1409,"BSTAR":0.00092259255,"MEAN_MOTION_DOT":0.00027088,"MEAN_MOTION_DDOT":0},{"OBJECT_NAME":"STARLINK-34382","OBJECT_ID":"2025-139D","EPOCH":"2025-09-19T01:36:16.522560","MEAN_MOTION":15.30209051,"ECCENTRICITY":0.00016752,"INCLINATION":53.1583,"RA_OF_ASC_NODE":204.5174,"ARG_OF_PERICENTER":102.9571,"MEAN_ANOMALY":257.1617,"EPHEMERIS_TYPE":0,"CLASSIFICATION_TYPE":"U","NORAD_CAT_ID":64667,"ELEMENT_SET_NO":999,"REV_AT_EPOCH":1400,"BSTAR":0.00084378927,"MEAN_MOTION_DOT":0.00024722,"MEAN_MOTION_DDOT":0}]
